satname,norad_id,inclination_deg,eccentricity,mean_motion_rev_per_day,perigee_km,apogee_km,l1,l2
STARLINK-1454,45671,53.0529,0.0007011,15.47200283,420.1510152367118,429.69026265804314,1 45671U 20035Q   26049.52262823  .00080957  00000+0  15578-2 0  9990,2 45671  53.0529 144.6776 0007011 345.3714  14.7089 15.47200283315943
STARLINK-1456,45673,53.0504,0.000441,15.45621183,426.5512686711718,432.55565165703683,1 45673U 20035S   26049.52209642  .00061813  00000+0  12616-2 0  9992,2 45673  53.0504 138.1828 0004410 282.5185  77.5327 15.45621183316057
STARLINK-1457,45674,53.0472,0.000922,15.73820489,341.78822422348367,354.1912018823532,1 45674U 20035T   26049.91671296  .00166512  00000+0  11342-2 0  9991,2 45674  53.0472 116.0928 0009220 357.1101 112.1126 15.73820489  5946
STARLINK-1458,45675,53.0533,0.0004356,15.40439924,441.83791965189175,447.7820710742526,1 45675U 20035U   26049.55527523  .00067767  00000+0  16437-2 0  9997,2 45675  53.0533 146.1797 0004356  14.2216 345.8910 15.40439924315906
STARLINK-1460,45676,53.0673,8.29e-05,15.10239384,534.896197106762,536.042473037116,1 45676U 20035V   26049.91671296  .00001884  00000+0  13151-3 0  9994,2 45676  53.0673 150.8597 0000829  87.8810 246.6798 15.10239384  5687
STARLINK-1392,45677,53.054,0.0001404,15.06404802,546.2245236677772,548.1691574102006,1 45677U 20035W   26049.80344937  .00004044  00000+0  29018-3 0  9992,2 45677  53.0540 151.4049 0001404  66.4578 293.6558 15.06404802315880
STARLINK-1394,45679,53.0506,0.0003477,15.44028896,431.86430342201584,436.60162549530105,1 45679U 20035Y   26049.50528051  .00061625  00000+0  13279-2 0  9991,2 45679  53.0506 128.3461 0003477 247.1657 112.8981 15.44028896316186
STARLINK-1402,45685,53.049,0.0001962,15.41998439,438.87410817774435,441.5496282736367,1 45685U 20035AE  26049.55013884  .00074342  00000+0  17103-2 0  9996,2 45685  53.0490 114.3079 0001962 217.1389 142.9480 15.41998439316398
STARLINK-1404,45686,53.1605,0.0001263,15.30192929,474.3706011991526,476.1017632649855,1 45686U 20035AF  26049.55864529 -.00000262  00000+0  32813-5 0  9996,2 45686  53.1605 138.5609 0001263  86.7445 273.3700 15.30192929316046
STARLINK-1413,45689,53.1619,0.0001528,15.30185434,474.211362373032,476.305760056538,1 45689U 20035AJ  26049.56495751  .00000527  00000+0  29923-4 0  9997,2 45689  53.1619 138.4123 0001528  75.4800 284.6370 15.30185434315969
STARLINK-1417,45693,53.0514,0.0003826,15.11419079,529.2276190548919,534.515157473591,1 45693U 20035AN  26049.56003801  .00025540  00000+0  15062-2 0  9992,2 45693  53.0514 140.9322 0003826 179.7016 180.3978 15.11419079316002
STARLINK-1420,45695,53.0539,0.0002878,15.48109171,420.30052818485274,424.21483536368214,1 45695U 20035AQ  26049.53838784  .00021437  00000+0  40911-3 0  9990,2 45695  53.0539 114.4277 0002878  38.6152 321.5061 15.48109171316388
STARLINK-1422,45696,53.1616,0.0001497,15.30198029,474.1950067905809,476.24690216215095,1 45696U 20035AR  26049.50700794  .00002156  00000+0  84906-4 0  9997,2 45696  53.1616 138.6825 0001497  99.5411 260.5759 15.30198029316032
STARLINK-1351,45697,53.0541,0.0001669,15.49480145,417.1114652304386,419.3800978029085,1 45697U 20035AS  26049.44618899  .00021992  00000+0  39993-3 0  9999,2 45697  53.0541 114.0311 0001669  66.5601 293.5582 15.49480145316384
STARLINK-1398,45699,53.0402,0.0005248,15.8429972,314.7829923979125,321.8115698193642,1 45699U 20035AU  26049.91671296  .00331650  00000+0  13794-2 0  9998,2 45699  53.0402  34.7252 0005248  54.4861  22.6728 15.84299720  6032
STARLINK-1400,45700,53.0523,0.0005871,15.46994363,421.52989809415067,429.51875722508794,1 45700U 20035AV  26049.64944876  .00071918  00000+0  13966-2 0  9997,2 45700  53.0523 114.1268 0005871  20.9670 339.1576 15.46994363316390
STARLINK-1403,45701,53.055,0.0001345,15.06387686,546.3178343746358,548.1807632890213,1 45701U 20035AW  26049.43394520  .00000610  00000+0  59877-4 0  9994,2 45701  53.0550 123.0634 0001345  92.3604 267.7539 15.06387686316248
STARLINK-1407,45703,53.0355,0.0012626,15.56349486,389.67683052989287,406.78851923290404,1 45703U 20035AY  26049.38582482  .00055280  00000+0  76951-3 0  9990,2 45703  53.0355  49.4861 0012626  33.6764 326.5047 15.56349486317289
STARLINK-1411,45706,53.045,0.0005115,15.58283626,389.1610546092834,396.0875434181744,1 45706U 20035BB  26049.41006945  .00070653  00000+0  91410-3 0  9990,2 45706  53.0450  75.3616 0005115  45.7034 314.4396 15.58283626316910
STARLINK-1423,45710,53.0523,0.0004869,15.48980565,416.39715379346035,423.01689430407896,1 45710U 20035BF  26049.51487679  .00079770  00000+0  14437-2 0  9995,2 45710  53.0523 114.1223 0004869  30.1874 329.9413 15.48980565316373
STARLINK-1433,45711,53.052,0.0005619,15.51130983,409.60657789023935,417.23893274326383,1 45711U 20035BG  26049.82304697  .00078674  00000+0  13198-2 0  9993,2 45711  53.0520 111.9720 0005619  27.0764 333.0537 15.51130983316430
STARLINK-1434,45712,53.0519,0.0003382,15.24742708,489.23480988196934,493.8814716751922,1 45712U 20035BH  26049.43993375  .00040197  00000+0  16069-2 0  9997,2 45712  53.0519 109.0497 0003382  15.1999 344.9099 15.24742708316451
STARLINK-1465,45731,53.0546,0.0004133,15.46857317,423.11405571328487,428.73829433375886,1 45731U 20038B   26049.02135915  .00070543  00000+0  13772-2 0  9990,2 45731  53.0546 317.2897 0004133 136.6309 223.5023 15.46857317313338
STARLINK-1471,45735,53.0461,0.0003703,15.47730243,420.848991570444,425.8861858688497,1 45735U 20038F   26049.73302271  .00024041  00000+0  46365-3 0  9990,2 45735  53.0461 232.7605 0003703 154.3778 205.7413 15.47730243314598
STARLINK-1474,45738,53.0171,0.000938,16.16210426,223.66273494219786,236.05933925979934,1 45738U 20038J   26049.82006458  .01104889  85802-3  74785-3 0  9995,2 45738  53.0171 158.5866 0009380 334.7979  25.2598 16.16210426315624
STARLINK-1480,45741,53.0518,0.0009972,15.45376242,423.4834375537466,437.0621300265375,1 45741U 20038M   26049.86115723  .00083675  00000+0  17118-2 0  9996,2 45741  53.0518 307.1336 0009972 114.8756 245.3287 15.45376242313565
STARLINK-1500,45744,53.0361,0.0003781,15.33679509,462.25819789880006,467.43286128767977,1 45744U 20038Q   26049.85100082  .00020478  00000+0  62957-3 0  9994,2 45744  53.0361 281.0431 0003781 158.1911 201.9251 15.33679509313924
STARLINK-1504,45746,53.023,0.0003458,15.51790168,409.15143828744567,413.84715074873384,1 45746U 20038S   26049.82416521  .00026808  00000+0  44733-3 0  9996,2 45746  53.0230 233.1018 0003458 136.7176 223.4104 15.51790168314580
STARLINK-1506,45747,53.0762,0.0003886,15.25607038,486.29466472258355,491.631775013464,1 45747U 20038T   26049.86099310  .00018458  00000+0  72831-3 0  9996,2 45747  53.0762 289.4084 0003886 160.1121 200.0029 15.25607038313810
STARLINK-1464,45751,53.0504,0.0004026,15.42156193,437.00199414278086,442.4917542382791,1 45751U 20038X   26049.84680788  .00041094  00000+0  94858-3 0  9999,2 45751  53.0504 294.0779 0004026 146.2033 213.9229 15.42156193313743
STARLINK-1477,45754,53.0506,0.0002071,15.13162131,525.1338562108958,527.9937832904361,1 45754U 20038AA  26049.02340419  .00025302  00000+0  14221-2 0  9995,2 45754  53.0506 302.2626 0002071  76.5796 283.5427 15.13162131313559
STARLINK-1478,45755,53.054,0.0006964,15.51414632,407.86585252821624,417.3239839439366,1 45755U 20038AB  26049.84209289  .00068723  00000+0  11433-2 0  9991,2 45755  53.0540 288.7372 0006964 133.8790 226.2794 15.51414632313807
STARLINK-1484,45756,53.0029,0.0005352,15.90027932,298.6293041591707,305.7799418324257,1 45756U 20038AC  26049.91671296  .00174771  22194-4  57921-3 0  9998,2 45756  53.0029 153.0632 0005352 341.8684  11.1389 15.90027932  5991
STARLINK-1493,45759,53.053,0.0002407,15.44388284,431.5365887339731,434.8155548467321,1 45759U 20038AF  26049.90880256  .00058560  00000+0  12476-2 0  9997,2 45759  53.0530 294.2186 0002407 142.6423 217.4750 15.44388284313735
STARLINK-1494,45760,53.0478,0.0001853,15.69997202,357.6566396353983,360.1533874056104,1 45760U 20038AG  26049.80236512  .00068402  00000+0  55805-3 0  9998,2 45760  53.0478 245.2456 0001853 239.1849 120.8985 15.69997202314429
STARLINK-1502,45764,53.0536,0.0001447,15.44636837,431.45987253782914,433.43085507391515,1 45764U 20038AL  26049.91671296  .00010849  00000+0  23793-3 0  9999,2 45764  53.0536 295.5235 0001447  76.9462 186.4049 15.44636837  5803
STARLINK-1470,45772,53.0464,0.0002506,15.26220713,485.4018768763726,488.84274484297566,1 45772U 20038AU  26049.82484609  .00039082  00000+0  14953-2 0  9995,2 45772  53.0464 261.7521 0002506 109.6305 250.4963 15.26220713314196
STARLINK-1482,45773,53.1536,0.0001116,15.29366909,476.938546254034,478.46876988891654,1 45773U 20038AV  26049.87000645 -.00001800  00000+0 -50040-4 0  9993,2 45773  53.1536 278.4291 0001116  86.7959 273.3169 15.29366909313960
STARLINK-1496,45780,53.0534,0.0008253,15.44721866,426.5748691146182,437.81600383426303,1 45780U 20038BC  26049.83346383  .00068317  00000+0  14344-2 0  9998,2 45780  53.0534 267.7887 0008253 138.1498 222.0140 15.44721866314095
STARLINK-1513,45786,53.1544,0.0001292,15.29352515,476.86089515342155,478.6324554951252,1 45786U 20038BJ  26049.81422451  .00004827  00000+0  17951-3 0  9997,2 45786  53.1544 278.8224 0001292  82.1628 277.9519 15.29352515313957
STARLINK-1522,46027,53.0554,0.0001411,15.063973,546.2426652126205,548.1970009109109,1 46027U 20055A   26049.72051531 -.00000182  00000+0  66449-5 0  9991,2 46027  53.0554 211.7730 0001411  93.0535 267.0615 15.06397300306028
STARLINK-1523,46028,53.0554,0.0001407,15.06397727,546.2441268423872,548.1929218869436,1 46028U 20055B   26049.73526145  .00000038  00000+0  21470-4 0  9994,2 46028  53.0554 211.7056 0001407 102.0976 258.0170 15.06397727306046
STARLINK-1526,46029,53.0555,0.0001388,15.06400591,546.2485084805603,548.1709847374195,1 46029U 20055C   26049.72788549  .00001439  00000+0  11547-3 0  9991,2 46029  53.0555 211.7396 0001388  93.2120 266.9027 15.06400591306037
